[{"OBJECT_NAME":"STARLINK-30486","OBJECT_ID":"2023-153U","EPOCH":"2026-03-09T22:00:01.999584","MEAN_MOTION":15.26716331,"ECCENTRICITY":0.0001476,"INCLINATION":43.0023,"RA_OF_ASC_NODE":65.5304,"ARG_OF_PERICENTER":262.5123,"MEAN_ANOMALY":101.6207,"EPHEMERIS_TYPE":0,"CLASSIFICATION_TYPE":"U","NORAD_CAT_ID":58009,"ELEMENT_SET_NO":999,"REV_AT_EPOCH":562,"BSTAR":0.0018657337,"MEAN_MOTION_DOT":0.00050091,"MEAN_MOTION_DDOT":0},{"OBJECT_NAME":"TOMORROW-S4","OBJECT_ID":"2024-247K","EPOCH":"2026-03-09T12:47:35.836224","MEAN_MOTION":15.27717249,"ECCENTRICITY":0.00044343,"INCLINATION":44.9818,"RA_OF_ASC_NODE":117.9996,"ARG_OF_PERICENTER":210.4078,"MEAN_ANOMALY":149.6548,"EPHEMERIS_TYPE":0,"CLASSIFICATION_TYPE":"U","NORAD_CAT_ID":62386,"ELEMENT_SET_NO":999,"REV_AT_EPOCH":6770,"BSTAR":0.00046927249,"MEAN_MOTION_DOT":0.00012677,"MEAN_MOTION_DDOT":0}]
